      2.10          N: GNSS NAV DATA                        RINEX VERSION / TYPE
fic2rin                                 09/24/2022 00:17:36 PGM / RUN BY / DATE
                                                            END OF HEADER
32 22  9 23 16  0  0.0 -.242005102336D-03 -.114823706099D-10  .000000000000D+00
     .800000000000D+02 -.986562500000D+02  .446340020425D-08  .131864992885D+01
    -.503845512867D-05  .609653221909D-02  .104233622551D-04  .515365796852D+04
     .489600000000D+06 -.100582838058D-06  .256160270213D+01  .856816768646D-07
     .958904462266D+00  .179812500000D+03 -.229316277466D+01 -.808605110220D-08
    -.288940606965D-09  .100000000000D+01  .222800000000D+04  .000000000000D+00
     .240000000000D+01  .000000000000D+00  .465661287308D-09  .800000000000D+02
     .482400000000D+06  .400000000000D+01
30 22  9 23 16  0  0.0 -.537113752216D-03 -.227373675443D-12  .000000000000D+00
     .420000000000D+02  .576250000000D+02  .508306887308D-08 -.238019499839D+01
     .287778675556D-05  .594065000769D-02  .877864658833D-05  .515370954514D+04
     .489600000000D+06  .000000000000D+00 -.265268443086D+01 -.502914190292D-07
     .936099250303D+00  .196031250000D+03 -.265554089252D+01 -.823105714228D-08
     .459662003910D-09  .100000000000D+01  .222800000000D+04  .000000000000D+00
     .240000000000D+01  .000000000000D+00  .372529029846D-08  .420000000000D+02
     .482400000000D+06  .400000000000D+01
26 22  9 23 16  0  0.0  .229738187045D-03  .159161572810D-11  .000000000000D+00
     .420000000000D+02  .128125000000D+01  .547951395804D-08  .236727244905D+01
    -.130385160446D-07  .715288671199D-02  .378303229809D-05  .515355505753D+04
     .489600000000D+06 -.109896063805D-06 -.167893689455D+01 -.167638063431D-07
     .935885130298D+00  .295968750000D+03  .375294454189D+00 -.861393023334D-08
    -.124290891500D-09  .100000000000D+01  .222800000000D+04  .000000000000D+00
     .240000000000D+01  .000000000000D+00  .698491930962D-08  .420000000000D+02
     .482400000000D+06  .400000000000D+01
21 22  9 23 16  0  0.0  .159064307809D-03 -.568434188608D-12  .000000000000D+00
     .910000000000D+02  .753125000000D+02  .459483425043D-08  .621275107402D+00
     .368058681488D-05  .243611931801D-01  .839680433273D-05  .515370186996D+04
     .489600000000D+06  .223517417908D-07  .392665790072D+00 -.448897480965D-06
     .961078264905D+00  .221218750000D+03 -.892012892969D+00 -.846606693138D-08
     .386801826134D-09  .100000000000D+01  .222800000000D+04  .000000000000D+00
     .240000000000D+01  .000000000000D+00 -.102445483208D-07  .910000000000D+02
     .482400000000D+06  .400000000000D+01
27 22  9 23 16  0  0.0  .208103563637D-03 -.477484718431D-11  .000000000000D+00
     .850000000000D+02 -.202500000000D+02  .407195532757D-08  .607936309593D+00
    -.102072954178D-05  .106055553770D-01  .107549130917D-04  .515366234779D+04
     .489600000000D+06 -.141561031342D-06 -.573601816841D+00  .189989805222D-06
     .970944575030D+00  .180281250000D+03  .687221893482D+00 -.786639909567D-08
    -.436446751188D-09  .100000000000D+01  .222800000000D+04  .000000000000D+00
     .240000000000D+01  .000000000000D+00  .139698386192D-08  .850000000000D+02
     .482400000000D+06  .400000000000D+01
24 22  9 23 16  0  0.0  .125349964947D-03 -.135287336889D-10  .000000000000D+00
     .610000000000D+02  .450625000000D+02  .506699677504D-08 -.132396056139D+01
     .234134495258D-05  .130490517477D-01  .954046845436D-05  .515367319489D+04
     .489600000000D+06  .381842255592D-06 -.274893511584D+01  .428408384323D-07
     .934556007780D+00  .180687500000D+03  .839578299989D+00 -.817498337801D-08
     .394302138552D-09  .100000000000D+01  .222800000000D+04  .000000000000D+00
     .240000000000D+01  .000000000000D+00  .279396772385D-08  .610000000000D+02
     .482400000000D+06  .400000000000D+01
19 22  9 23 16  0  0.0  .214572064579D-03  .500222085975D-11  .000000000000D+00
     .930000000000D+02  .959375000000D+01  .382444501777D-08  .276827707406D+01
     .420957803726D-06  .912373559549D-02  .112727284431D-04  .515372652435D+04
     .489600000000D+06  .894069671631D-07 -.464953111803D+00  .987201929092D-07
     .976498975079D+00  .166531250000D+03  .218172467983D+01 -.750531262640D-08
    -.312870175156D-09  .100000000000D+01  .222800000000D+04  .000000000000D+00
     .240000000000D+01  .000000000000D+00 -.153668224812D-07  .930000000000D+02
     .482400000000D+06  .400000000000D+01
20 22  9 23 16  0  0.0  .484049320221D-03 -.306954461848D-11  .000000000000D+00
     .840000000000D+02 -.912500000000D+01  .545415575891D-08 -.544532319443D+00
    -.353902578354D-06  .476446782704D-02  .157579779625D-05  .515365246773D+04
     .489600000000D+06  .204890966415D-07  .136097896023D+01 -.260770320892D-07
     .944497192979D+00  .339218750000D+03 -.309063885409D+01 -.879786646645D-08
     .111433213069D-09  .100000000000D+01  .222800000000D+04  .000000000000D+00
     .340000000000D+01  .000000000000D+00 -.838190317154D-08  .840000000000D+02
     .482400000000D+06  .400000000000D+01
17 22  9 23 16  0  0.0  .662039965391D-03  .375166564481D-11  .000000000000D+00
     .113000000000D+03 -.421875000000D+01  .389766235328D-08  .617134200745D+00
    -.288709998131D-06  .137218640884D-01  .112187117338D-04  .515362658501D+04
     .489600000000D+06 -.147148966789D-06 -.509645422972D+00 -.134110450745D-06
     .977554095966D+00  .172875000000D+03 -.147971753560D+01 -.791175812791D-08
    -.355014787791D-09  .100000000000D+01  .222800000000D+04  .000000000000D+00
     .240000000000D+01  .000000000000D+00 -.111758708954D-07  .113000000000D+03
     .482400000000D+06  .400000000000D+01
13 22  9 23 16  0  0.0  .393044203520D-03  .716227077646D-11  .000000000000D+00
     .690000000000D+02 -.661562500000D+02  .421731852539D-08  .127423941959D+00
    -.334903597832D-05  .648368487600D-02  .115595757961D-04  .515368541145D+04
     .489600000000D+06 -.223517417908D-07  .270579847614D+01  .540167093277D-07
     .969404837660D+00  .158062500000D+03  .936940457457D+00 -.794568811266D-08
    -.197151069276D-09  .100000000000D+01  .222800000000D+04  .000000000000D+00
     .240000000000D+01  .000000000000D+00 -.111758708954D-07  .690000000000D+02
     .482400000000D+06  .400000000000D+01
22 22  9 23 16  0  0.0  .333079602569D-03  .682121026330D-11  .000000000000D+00
     .720000000000D+02 -.784687500000D+02  .448982987658D-08  .397916170874D+00
    -.402890145779D-05  .134474725928D-01  .106301158667D-04  .515374669075D+04
     .489600000000D+06 -.150874257088D-06  .265259260057D+01  .391155481339D-07
     .962127769649D+00  .180406250000D+03 -.184465972315D+01 -.820141305034D-08
    -.272154193457D-09  .100000000000D+01  .222800000000D+04  .000000000000D+00
     .240000000000D+01  .000000000000D+00 -.791624188423D-08  .720000000000D+02
     .482400000000D+06  .400000000000D+01
25 22  9 23 16  0  0.0  .375123228878D-03  .397903932026D-11  .000000000000D+00
     .109000000000D+03 -.103125000000D+02  .491270463387D-08  .312192961265D+01
    -.497326254845D-06  .105502838269D-01  .410713255405D-05  .515360543060D+04
     .489600000000D+06  .577419996262D-07 -.162781054240D+01 -.651925802231D-07
     .955059334238D+00  .294875000000D+03  .100355842157D+01 -.817105464294D-08
    -.147863301957D-09  .100000000000D+01  .222800000000D+04  .000000000000D+00
     .240000000000D+01  .000000000000D+00  .558793544769D-08  .109000000000D+03
     .482400000000D+06  .400000000000D+01
23 22  9 23 16  0  0.0 -.357627868652D-06 -.454747350886D-12  .000000000000D+00
     .227000000000D+03 -.245312500000D+02  .477877048354D-08 -.240246013026D+01
    -.120885670185D-05  .266977096908D-02  .227615237236D-05  .515361948204D+04
     .489600000000D+06 -.689178705215D-07  .149373661811D+01 -.372529029846D-08
     .969931950450D+00  .343375000000D+03  .301259926971D+01 -.840999316712D-08
    -.110718897601D-10  .100000000000D+01  .222800000000D+04  .000000000000D+00
     .240000000000D+01  .000000000000D+00 -.838190317154D-08  .739000000000D+03
     .482400000000D+06  .400000000000D+01
18 22  9 23 16  0  0.0  .387090258300D-04 -.129602995003D-10  .000000000000D+00
     .171000000000D+03  .995000000000D+02  .419981779641D-08 -.136973539975D+01
     .491365790367D-05  .285548833199D-02  .790692865849D-05  .515372371674D+04
     .489600000000D+06  .745058059692D-08  .494071308282D+00 -.577419996262D-07
     .972627321421D+00  .232906250000D+03  .307615138032D+01 -.799211861811D-08
     .518950187787D-09  .100000000000D+01  .222800000000D+04  .000000000000D+00
     .240000000000D+01  .000000000000D+00 -.838190317154D-08  .427000000000D+03
     .482400000000D+06  .400000000000D+01
11 22  9 23 16  0  0.0 -.188671983778D-04 -.329691829393D-11  .000000000000D+00
     .189000000000D+03  .100500000000D+03  .450268755501D-08  .275753777635D+00
     .529363751411D-05  .736827962101D-03  .688992440701D-05  .515364202881D+04
     .489600000000D+06  .521540641785D-07  .528119282677D+00 -.931322574615D-08
     .964018952607D+00  .250375000000D+03 -.311858874809D+01 -.814605360154D-08
     .477519890620D-09  .100000000000D+01  .222800000000D+04  .000000000000D+00
     .240000000000D+01  .000000000000D+00 -.838190317154D-08  .957000000000D+03
     .482400000000D+06  .400000000000D+01
10 22  9 23 16  0  0.0 -.454951077700D-05 -.170530256582D-11  .000000000000D+00
     .102000000000D+03 -.256250000000D+02  .461340645261D-08  .264634971763D+01
    -.131875276566D-05  .792259420268D-02  .213459134102D-05  .515368165779D+04
     .489600000000D+06 -.633299350739D-07  .151971492572D+01 -.875443220139D-07
     .974835110572D+00  .348968750000D+03 -.251119498069D+01 -.824712924032D-08
    -.928610108910D-11  .100000000000D+01  .222800000000D+04  .000000000000D+00
     .485000000000D+01  .000000000000D+00  .232830643654D-08  .102000000000D+03
     .482400000000D+06  .400000000000D+01
